,zipcode,schoolNames,rankMovements,lats,longs,countyNames,rankLevels,averageStandardScores22,ranks22,rankStatewidePercentages22,averageStandardScores21,ranks21,rankStatewidePercentages21
0,78602,Bastrop High School,-105.0,30.117982,-97.311598,Bastrop County,High,30.12612,1344,28.36,34.16063,1239.0,33.42
1,78602,Bastrop Middle,-20.0,30.112805,-97.34301,Bastrop County,Middle,33.7633,1514,32.83,33.31015,1494.0,33.66
2,78602,Bluebonnet Elementary,-755.0,30.132427,-97.4301,Bastrop County,Elementary,17.34277,4081,10.91,27.75586,3326.0,27.35
3,78602,Colorado River Collegiate Academy,42.0,30.11742,-97.315688,Bastrop County,High,93.0789,23,98.77,89.02025,65.0,96.51
4,78602,Emile Elementary,367.0,30.106769,-97.310006,Bastrop County,Elementary,42.61116,2580,43.68,33.24658,2947.0,35.63
5,78612,Cedar Creek Elementary,-199.0,30.084121,-97.500006,Bastrop County,Elementary,10.13308,4399,3.97,15.15267,4200.0,8.26
6,78612,Cedar Creek High School,-343.0,30.13835,-97.471641,Bastrop County,High,20.54056,1527,18.6,36.99134,1184.0,36.38
7,78612,Cedar Creek Middle,-94.0,30.09513,-97.479935,Bastrop County,Middle,18.41832,1964,12.87,20.35392,1870.0,16.96
8,78621,Booker T Washington Elementary,-79.0,30.3418,-97.3654,Bastrop County,Elementary,12.69529,4302,6.09,14.83249,4223.0,7.75
9,78621,Elgin Elementary,253.0,30.349566,-97.379744,Bastrop County,Elementary,21.45919,3859,15.76,16.50551,4112.0,10.18
10,78621,Elgin High School,-219.0,30.366377,-97.404222,Travis County,High,19.42761,1552,17.27,29.378,1333.0,28.37
11,78621,Elgin Middle,44.0,30.358686,-97.386889,Bastrop County,Middle,21.23652,1900,15.71,17.9122,1944.0,13.68
12,78621,Neidig Elementary,-1221.0,30.3606,-97.4083,Travis County,Elementary,19.20317,3988,12.94,36.32757,2767.0,39.56
13,78621,Phoenix High School,-17.0,30.36737,-97.40594,Travis County,High,1.37884,1874,0.11,1.533,1857.0,0.21
14,78650,McDade Elementary,-1186.0,30.283488,-97.239533,Bastrop County,Elementary,33.97164,3125,31.78,51.99912,1939.0,57.65
15,78650,McDade High School,-202.0,30.283488,-97.239533,Bastrop County,High,33.31548,1269,32.36,42.42294,1067.0,42.67
16,78662,Red Rock Elementary,151.0,29.958825,-97.451251,Bastrop County,Elementary,19.66732,3963,13.49,16.48424,4114.0,10.14
17,78957,Smithville Elementary,-1095.0,30.008766,-97.149086,Bastrop County,Elementary,48.2432,2257,50.73,69.01338,1162.0,74.62
18,78957,Smithville High School,-215.0,29.998,-97.1662,Bastrop County,High,40.1801,1111,40.78,49.62314,896.0,51.85
19,78957,Smithville J H,-312.0,29.996394,-97.166314,Bastrop County,Middle,40.41651,1320,41.44,50.78474,1008.0,55.24
20,78610,Alter Impact Center,-46.0,30.094632,-97.891158,Hays County,High,7.31753,1753,6.56,9.418,1707.0,8.28
21,78610,Buda Elementary,36.0,30.095164,-97.820826,Hays County,Elementary,68.19921,1220,73.37,67.08559,1256.0,72.56
22,78610,Carpenter Hill Elementary,-15.0,30.097023,-97.89668,Hays County,Elementary,89.95657,355,92.25,91.42539,340.0,92.57
23,78610,Creedmoor Elementary,743.0,30.091073,-97.720692,Travis County,Elementary,34.26617,3106,32.2,20.22316,3849.0,15.92
24,78610,Dr T C McCormick Junior Middle,361.0,30.054397,-97.82404,Hays County,Middle,50.88696,989,56.12,38.02601,1350.0,40.05
25,78610,Elm Grove Elementary,-117.0,30.089138,-97.87326,Hays County,Elementary,88.53951,405,91.16,92.63022,288.0,93.71
26,78610,Eric Dahlstrom Middle,38.0,30.0973,-97.8822,Hays County,Middle,82.02557,302,86.6,78.3275,340.0,84.9
27,78610,Jack C Hays High School,198.0,30.031437,-97.889957,Hays County,High,61.9135,562,70.04,55.29533,760.0,59.16
28,78610,Live Oak Academy,98.0,30.03,-97.8898,Hays County,High,15.11695,1611,14.13,9.31527,1709.0,8.17
29,78620,Dripping Springs Elementary,-100.0,30.216223,-98.082273,Hays County,Elementary,81.08988,695,84.83,84.31833,595.0,87.0
30,78620,Dripping Springs High School,35.0,30.197373,-98.101321,Hays County,High,78.91586,211,88.75,78.38444,246.0,86.78
31,78620,Dripping Springs Middle,24.0,30.202122,-98.115101,Hays County,Middle,84.03577,248,89.0,82.34856,272.0,87.92
32,78620,Walnut Springs Elementary,129.0,30.201033,-98.114218,Hays County,Elementary,86.61435,483,89.46,83.73069,612.0,86.63
33,78640,Armando Chapa Middle,459.0,30.021,-97.833,Hays County,Middle,42.05352,1253,44.41,26.12148,1712.0,23.98
34,78640,Camino Real Elementary,444.0,30.005036,-97.761941,Hays County,Elementary,32.9658,3177,30.65,23.28784,3621.0,20.9
35,78640,D J Red Simon Middle,-106.0,29.945591,-97.828637,Hays County,Middle,12.42119,2116,6.12,15.72293,2010.0,10.75
36,78640,Hemphill Elementary,148.0,29.943667,-97.827346,Hays County,Elementary,39.47784,2767,39.6,33.7384,2915.0,36.33
37,78640,Idea Kyle Academy,-384.0,29.997346,-97.863843,Hays County,Elementary,41.5808,2646,42.24,45.6399,2262.0,50.59
38,78640,Idea Kyle College Preparatory,378.0,29.997346,-97.863843,Hays County,Middle,56.38099,828,63.27,43.53454,1206.0,46.45
39,78640,Kyle Elementary,-519.0,29.9915,-97.8788,Hays County,Elementary,46.76687,2328,49.18,54.40953,1809.0,60.48
40,78640,Laura B Negley Elementary,0.0,30.0109,-97.8838,Hays County,Elementary,73.77679,1000,78.17,72.77312,1000.0,78.16
41,78640,Laura B Wallace Middle,139.0,29.9914,-97.8897,Hays County,Middle,45.66974,1140,49.42,40.43845,1279.0,43.21
42,78640,Lehman High School,10.0,29.9952,-97.84763,Hays County,High,33.7254,1254,33.16,32.69169,1264.0,32.08
43,78666,Blanco Vista Elementary,69.0,29.946645,-97.896218,Hays County,Elementary,61.4882,1536,66.47,58.3382,1605.0,64.94
44,78666,Bowie Elementary,-12.0,29.820911,-97.94143,Hays County,Elementary,22.2615,3826,16.48,20.57457,3814.0,16.69
45,78666,Crockett Elementary,80.0,29.885604,-97.961547,Hays County,Elementary,55.85331,1819,60.29,52.71735,1899.0,58.52
46,78666,Dezavala Elementary,55.0,29.856159,-97.935145,Hays County,Elementary,22.97839,3785,17.38,20.31836,3840.0,16.12
47,78666,Goodnight Middle,-270.0,29.858464,-97.937067,Hays County,Middle,15.06176,2045,9.27,23.72162,1775.0,21.18
48,78666,Hernandez Elementary,35.0,29.865699,-97.968347,Hays County,Elementary,58.46797,1678,63.37,56.27536,1713.0,62.58
49,78666,Jhw Inspire Academy - Hays County,230.0,29.832063,-97.945788,Hays County,High,20.617,1526,18.66,6.46769,1756.0,5.64
50,78676,Danforth J H,-89.0,30.003071,-98.113491,Hays County,Middle,76.80242,374,83.41,81.48555,285.0,87.34
51,78676,Jacob's Well Elementary,-835.0,30.019254,-98.144719,Hays County,Elementary,62.00603,1518,66.86,81.9005,683.0,85.08
52,78676,Katherine Anne Porter School,476.0,30.002943,-98.106904,Hays County,High,65.40115,487,74.04,46.88879,963.0,48.25
53,78676,Wimberley High School,100.0,30.005117,-98.117104,Hays County,High,73.02837,316,83.16,70.08121,416.0,77.65
54,78737,Rooster Springs Elementary,231.0,30.1922,-97.9829,Hays County,Elementary,90.29619,344,92.49,85.03891,575.0,87.44
55,78737,Sycamore Springs Elementary,16.0,30.178573,-98.000246,Hays County,Elementary,87.82271,434,90.53,88.65567,450.0,90.17
56,78737,Sycamore Springs Middle,37.0,30.178573,-98.000246,Hays County,Middle,92.84355,97,95.7,91.54769,134.0,94.05
57,78616,Alma Brewer Strawn Elementary,-288.0,30.001068,-97.618625,Caldwell County,Elementary,36.79185,2946,35.69,38.28684,2658.0,41.94
58,78644,Bluebonnet Elementary,-436.0,29.879146,-97.69505,Caldwell County,Elementary,32.79276,3197,30.21,36.42755,2761.0,39.69
59,78644,Clear Fork Elementary,347.0,29.8753,-97.6825,Caldwell County,Elementary,55.77555,1824,60.18,47.4385,2171.0,52.58
60,78644,Lockhart High School,-319.0,29.872823,-97.677491,Caldwell County,High,18.74451,1564,16.63,33.71196,1245.0,33.1
61,78644,Lockhart J H,-14.0,29.87377,-97.701272,Caldwell County,Middle,28.64135,1678,25.55,27.54415,1664.0,26.11
62,78644,Navarro Elementary,-801.0,29.873018,-97.681008,Caldwell County,Elementary,25.81689,3616,21.07,35.56008,2815.0,38.51
63,78644,Pegasus School,-219.0,29.836658,-97.682258,Caldwell County,High,22.71341,1491,20.52,32.16623,1272.0,31.65
64,78644,Plum Creek Elementary,149.0,29.892364,-97.666093,Caldwell County,Elementary,53.42857,1960,57.21,48.5778,2109.0,53.93
65,78648,Gilbert Gerdes J H,119.0,29.678862,-97.65395,Caldwell County,Middle,27.36828,1722,23.6,21.05523,1841.0,18.25
66,78648,Leonard Shanklin Elementary,-286.0,29.676731,-97.655531,Caldwell County,Elementary,37.9662,2863,37.5,39.72035,2577.0,43.71
67,78648,Luling High School,208.0,29.677746,-97.654091,Caldwell County,High,35.10931,1228,34.54,24.56468,1436.0,22.84
68,76527,Florence Elementary,-1635.0,30.84527,-97.793701,Williamson County,Elementary,29.00268,3423,25.28,54.81805,1788.0,60.94
69,76527,Florence High School,32.0,30.830934,-97.794784,Williamson County,High,27.66056,1384,26.23,25.5466,1416.0,23.91
70,76527,Florence Middle,-43.0,30.832146,-97.791149,Williamson County,Middle,32.17867,1555,31.01,32.57957,1512.0,32.86
71,76537,Igo Elementary,-561.0,30.797532,-97.595162,Williamson County,Elementary,6.50673,4523,1.27,18.75144,3962.0,13.46
72,76537,Jarrell Elementary,141.0,30.809699,-97.591393,Williamson County,Elementary,24.89092,3661,20.08,20.66583,3802.0,16.95
73,76537,Jarrell High School,-150.0,30.818644,-97.62837,Williamson County,High,23.02296,1484,20.9,29.346,1334.0,28.32
74,76537,Jarrell Middle,131.0,30.82932,-97.606621,Williamson County,Middle,35.00084,1474,34.61,29.33089,1605.0,28.73
75,76574,Legacy Early College High School,-124.0,30.571898,-97.409429,Williamson County,High,71.85867,342,81.77,80.00632,218.0,88.29
76,76574,Main Street Intermediate,-1203.0,30.594682,-97.415334,Williamson County,Elementary,12.88424,4293,6.29,31.23362,3090.0,32.5
77,76574,Taylor High School,-57.0,30.548148,-97.431017,Williamson County,High,16.81227,1586,15.46,19.77492,1529.0,17.84
78,76574,Taylor Middle,-129.0,30.598763,-97.428583,Williamson County,Middle,18.31014,1971,12.56,20.98008,1842.0,18.21
79,76578,Thrall Elementary,125.0,30.587652,-97.295048,Williamson County,Elementary,86.62786,482,89.48,83.8416,607.0,86.74
80,76578,Thrall High School,88.0,30.589694,-97.295725,Williamson County,High,62.45617,551,70.63,60.20673,639.0,65.66
81,76578,Thrall Middle,-35.0,30.587652,-97.295048,Williamson County,Middle,83.74424,253,88.78,85.77262,218.0,90.32
82,78613,Ada Mae Faubion Elementary,277.0,30.488548,-97.831385,Williamson County,Elementary,52.83131,1993,56.49,45.53079,2270.0,50.42
83,78613,Artie L Henry Middle,-71.0,30.521626,-97.788545,Williamson County,Middle,72.60184,452,79.95,76.15974,381.0,83.08
84,78613,C C Mason Elementary,75.0,30.520801,-97.855599,Williamson County,Elementary,56.26426,1794,60.84,53.29907,1869.0,59.17
85,78613,Cedar Park High School,82.0,30.471867,-97.843371,Williamson County,High,81.86007,167,91.1,78.138,249.0,86.62
86,78613,Cedar Park Middle,-74.0,30.475099,-97.83588,Williamson County,Middle,79.74502,333,85.23,82.85312,259.0,88.5
87,78613,Cypress Elementary,-183.0,30.465382,-97.835965,Williamson County,Elementary,79.54582,772,83.15,84.47381,589.0,87.13
88,78613,Deer Creek Elementary,141.0,30.482616,-97.852919,Travis County,Elementary,82.79568,644,85.94,78.62457,785.0,82.85
89,78615,Coupland Elementary,-1029.0,30.453691,-97.390717,Williamson County,Elementary,37.79161,2874,37.26,53.76964,1845.0,59.7
90,78626,Annie Purl Elementary,-675.0,30.627471,-97.665842,Williamson County,Elementary,8.38433,4476,2.29,20.6782,3801.0,16.97
91,78626,Carver Elementary,-336.0,30.588929,-97.661364,Williamson County,Elementary,50.95099,2106,54.03,55.19986,1770.0,61.34
92,78626,Charles A Forbes Middle,-142.0,30.661663,-97.648696,Williamson County,Middle,43.08089,1226,45.61,47.63551,1084.0,51.87
93,78626,East View High School,-202.0,30.642005,-97.618821,Williamson County,High,27.01253,1398,25.48,36.41308,1196.0,35.73
94,78626,George Wagner Middle,-320.0,30.620955,-97.640645,Williamson County,Middle,19.33483,1947,13.62,28.87204,1627.0,27.75
95,78628,Douglas Benold Middle,-72.0,30.672768,-97.688718,Williamson County,Middle,69.51273,495,78.04,74.1547,423.0,81.22
96,78628,Frost Elementary,-800.0,30.669967,-97.688314,Williamson County,Elementary,12.9632,4291,6.33,25.18634,3491.0,23.74
97,78628,Gateway Technical High School,106.0,30.663109,-97.690338,Williamson County,High,59.68787,611,67.43,57.22979,717.0,61.47
98,78628,Georgetown Charter Academy,-347.0,30.683938,-97.687752,Williamson County,Elementary,39.79564,2751,39.95,42.83241,2404.0,47.49
99,78628,James Tippit Middle,-84.0,30.615343,-97.699514,Williamson County,Middle,31.98684,1563,30.66,33.89083,1479.0,34.33
100,78628,Parkside Elementary,-55.0,30.577989,-97.770703,Williamson County,Elementary,86.48896,489,89.33,89.05888,434.0,90.52
101,78628,Raye McCoy Elementary,-448.0,30.693682,-97.705586,Williamson County,Elementary,62.20747,1510,67.04,71.24292,1062.0,76.8
102,78628,Wolf Ranch Elementary,-295.0,30.626421,-97.710642,Williamson County,Elementary,54.24415,1916,58.18,57.8334,1621.0,64.59
103,78634,Benjamin Doc Kerley Elementary,-224.0,30.551052,-97.589961,Williamson County,Elementary,52.53084,2013,56.06,54.75948,1789.0,60.92
104,78634,Cottonwood Creek Elementary,-167.0,30.556468,-97.552509,Williamson County,Elementary,37.85774,2872,37.31,37.56496,2705.0,40.91
105,78634,Farley Middle,-275.0,30.51616,-97.543001,Williamson County,Middle,35.27176,1463,35.09,44.11347,1188.0,47.25
106,78634,Howard Norman Elementary,-485.0,30.518752,-97.557689,Williamson County,Elementary,47.66696,2283,50.16,54.60728,1798.0,60.73
107,78634,Hutto Elementary,-433.0,30.550549,-97.538947,Williamson County,Elementary,48.23595,2258,50.71,54.12383,1825.0,60.14
108,78634,Hutto High School,-255.0,30.536524,-97.562299,Williamson County,High,45.50335,984,47.55,56.79158,729.0,60.83
109,78634,Hutto Middle,112.0,30.552669,-97.553231,Williamson County,Middle,54.96793,879,61.0,51.32919,991.0,55.99
110,78634,Nadine Johnson Elementary,647.0,30.534783,-97.558873,Williamson County,Elementary,44.45162,2470,46.08,30.81456,3117.0,31.91
111,78634,Ray Elementary,-235.0,30.513863,-97.538907,Williamson County,Elementary,52.91242,1987,56.63,55.5468,1752.0,61.73
112,78642,Bill Burden Elementary,561.0,30.66125,-97.889127,Williamson County,Elementary,80.18011,743,83.78,66.07525,1304.0,71.52
113,78642,Ki Charter Academy Liberty Hill,,30.665326,-97.893251,Williamson County,High,51.45414,840,55.22,,,
114,78642,Liberty Hill Elementary,-377.0,30.668138,-97.924891,Williamson County,Elementary,72.60728,1050,77.08,82.22134,673.0,85.3
115,78642,Liberty Hill High School,-100.0,30.682475,-97.953559,Williamson County,High,62.74088,547,70.84,68.638,447.0,75.98
116,78642,Liberty Hill Middle,-192.0,30.661179,-97.90231,Williamson County,Middle,60.70626,703,68.81,69.72493,511.0,77.31
117,78642,Santa Rita Elementary,-358.0,30.647251,-97.844219,Williamson County,Elementary,65.6189,1343,70.68,73.2039,985.0,78.48
118,78664,C D Fulkes Middle,58.0,30.511138,-97.682097,Williamson County,Middle,24.21414,1821,19.21,20.13971,1879.0,16.56
119,78664,Caldwell Elementary,-498.0,30.468387,-97.655189,Travis County,Elementary,42.29149,2600,43.24,48.78929,2102.0,54.08
120,78664,Cedar Ridge High School,19.0,30.493231,-97.641309,Williamson County,High,56.75279,685,63.49,57.79807,704.0,62.17
121,78664,Claude Berkman Elementary,63.0,30.510694,-97.684072,Williamson County,Elementary,13.64857,4262,6.96,13.36655,4325.0,5.53
122,78664,Forest Creek Elementary,212.0,30.508198,-97.608115,Williamson County,Elementary,82.82096,640,86.03,76.96997,852.0,81.39
123,78664,Idea Round Rock Technical Academy,,30.479197,-97.661051,Travis County,Elementary,57.98869,1695,63.0,,,
124,78681,Bluebonnet Elementary,-324.0,30.489854,-97.691599,Williamson County,Elementary,10.39555,4389,4.19,17.21716,4065.0,11.21
125,78681,Brushy Creek Elementary,-232.0,30.511802,-97.737776,Williamson County,Elementary,68.98867,1193,73.96,73.98717,961.0,79.01
126,78681,Cactus Ranch Elementary,1.0,30.541065,-97.721455,Williamson County,Elementary,99.13007,16,99.65,99.46692,17.0,99.63
127,78681,Chandler Oaks Elementary,79.0,30.556509,-97.732714,Williamson County,Elementary,90.55614,328,92.84,89.82379,407.0,91.11
128,78681,Chisholm Trail Middle,217.0,30.502682,-97.702571,Williamson County,Middle,72.84397,443,80.35,63.0217,660.0,70.69
129,78681,Deep Wood Elementary,338.0,30.500172,-97.697223,Williamson County,Elementary,79.71695,763,83.34,70.27429,1101.0,75.95
130,78681,Fern Bluff Elementary,128.0,30.516464,-97.720143,Williamson County,Elementary,91.91239,286,93.76,89.68587,414.0,90.96
131,78717,Cedar Valley Middle,45.0,30.492108,-97.734198,Williamson County,Middle,96.36768,48,97.87,93.4777,93.0,95.87
132,78717,Elsa England Elementary,39.0,30.493608,-97.750879,Williamson County,Elementary,98.16131,51,98.89,97.95845,90.0,98.03
133,78717,Patsy Sommer Elementary,3.0,30.504541,-97.751946,Williamson County,Elementary,98.84738,24,99.48,99.35792,27.0,99.41
134,78717,Pearson Ranch Middle,-16.0,30.496193,-97.749922,Williamson County,Middle,95.28929,66,97.07,96.54958,50.0,97.78
135,78717,Rutledge Elementary,-90.0,30.49792,-97.79333,Williamson County,Elementary,89.62557,369,91.94,93.02407,279.0,93.91
136,78729,Deerpark Middle,435.0,30.452562,-97.772945,Williamson County,Middle,59.41045,743,67.04,44.27357,1178.0,47.69
137,78729,Forest North Elementary,881.0,30.470675,-97.78187,Williamson County,Elementary,51.78679,2052,55.21,33.41776,2933.0,35.93
138,78729,Jollyville Elementary,-221.0,30.444326,-97.750722,Travis County,Elementary,67.05795,1268,72.32,71.78511,1047.0,77.13
139,78729,Live Oak Elementary,206.0,30.453703,-97.770795,Williamson County,Elementary,51.25418,2085,54.49,45.15007,2291.0,49.96
140,78729,McNeil High School,-97.0,30.449115,-97.732611,Travis County,High,66.96694,460,75.48,72.52502,363.0,80.49
141,78729,Pond Springs Elementary,381.0,30.446256,-97.764272,Williamson County,Elementary,72.66251,1046,77.17,62.49319,1427.0,68.83
142,78617,Del Valle Elementary,-530.0,30.175075,-97.621592,Travis County,Elementary,17.75531,4062,11.33,24.70076,3532.0,22.85
143,78617,Del Valle High School,-15.0,30.1799,-97.612372,Travis County,High,21.05165,1522,18.87,20.74505,1507.0,19.02
144,78617,Del Valle Middle,76.0,30.173615,-97.623506,Travis County,Middle,27.09623,1731,23.2,22.6252,1807.0,19.76
145,78617,Del Valle Opportunity Center,-117.0,30.176336,-97.612237,Travis County,High,2.16864,1864,0.64,7.16303,1747.0,6.13
146,78617,Popham Elementary,420.0,30.157842,-97.643912,Travis County,Elementary,31.77319,3269,28.64,22.31382,3689.0,19.42
147,78641,Bagdad Elementary,-258.0,30.579271,-97.879135,Williamson County,Elementary,32.89373,3187,30.43,33.48059,2929.0,36.02
148,78641,Block House Creek Elementary,-461.0,30.540486,-97.831813,Williamson County,Elementary,48.2937,2251,50.86,54.75674,1790.0,60.9
149,78641,Christine Camacho Elementary,-1185.0,30.574281,-97.858227,Williamson County,Elementary,28.88082,3433,25.06,46.03932,2248.0,50.9
150,78641,Florence W Stiles Middle,-23.0,30.559643,-97.791438,Williamson County,Middle,95.25548,68,96.98,96.84333,45.0,98.0
151,78641,Glenn High School,121.0,30.59897,-97.882821,Williamson County,High,52.17277,815,56.56,48.20076,936.0,49.7
152,78645,Lago Vista High School,-223.0,30.441277,-97.978685,Travis County,High,51.36592,843,55.06,61.01055,620.0,66.68
153,78645,Lago Vista Intermediate,46.0,30.479181,-97.977013,Travis County,Elementary,66.1103,1309,71.43,64.50096,1355.0,70.4
154,78645,Lago Vista Middle,349.0,30.480277,-97.977381,Travis County,Middle,73.27352,436,80.66,58.33057,785.0,65.14
155,78653,Blake Manor Elementary,73.0,30.308949,-97.533178,Travis County,Elementary,23.54322,3748,18.18,20.52353,3821.0,16.54
156,78653,Lagos Elementary,788.0,30.331053,-97.55882,Travis County,Elementary,38.29494,2842,37.96,23.14201,3630.0,20.71
157,78653,Manor Excel Academy,-2.0,30.341989,-97.550297,Travis County,High,2.31394,1860,0.85,1.43996,1858.0,0.16
158,78653,Manor High School,-67.0,30.353329,-97.562329,Travis County,High,13.67846,1638,12.69,17.08315,1571.0,15.58
159,78653,Manor Middle,36.0,30.357579,-97.562683,Travis County,Middle,12.58303,2111,6.34,11.07934,2147.0,4.66
160,78653,Manor New Technology High,-454.0,30.344679,-97.573504,Travis County,High,15.15455,1610,14.18,38.45977,1156.0,37.88
161,78653,Manor New Technology Middle,-489.0,30.343656,-97.574493,Travis County,Middle,30.83533,1603,28.88,46.59552,1114.0,50.53
162,78653,Presidential Meadows Elementary,193.0,30.352637,-97.526189,Travis County,Elementary,15.2443,4194,8.45,12.13628,4387.0,4.17
163,78660,Brookhollow Elementary,-134.0,30.452449,-97.618305,Travis County,Elementary,49.30519,2187,52.26,49.70871,2053.0,55.16
164,78660,Cele Middle,312.0,30.458047,-97.548457,Travis County,Middle,83.38706,271,87.98,66.45206,583.0,74.11
165,78660,Dearing Elementary,-171.0,30.495446,-97.593373,Travis County,Elementary,56.37805,1789,60.95,57.92821,1618.0,64.66
166,78660,Harmony Science Academy-Pflugerville,-14.0,30.439272,-97.663802,Travis County,High,44.89038,1000,46.7,45.57501,986.0,47.02
167,78660,Hendrickson High School,46.0,30.464251,-97.588671,Travis County,High,70.60564,363,80.65,70.42168,409.0,78.02
168,78669,Lake Travis Middle,63.0,30.337595,-98.031072,Travis County,Middle,87.62899,171,92.41,84.40496,234.0,89.61
169,78669,Rough Hollow Elementary,-444.0,30.354713,-98.028194,Travis County,Elementary,82.34425,658,85.64,94.6621,214.0,95.33
170,78669,Spicewood Elementary,-108.0,30.469764,-98.155351,Burnet County,Elementary,80.95942,706,84.59,84.13605,598.0,86.94
171,78669,West Cypress Hills Elementary,-617.0,30.349978,-98.084693,Travis County,Elementary,57.76777,1708,62.72,70.5041,1091.0,76.17
172,78702,Blackshear Elementary,-183.0,30.267237,-97.722184,Travis County,Elementary,38.06049,2859,37.59,38.00142,2676.0,41.55
173,78702,Govalle Elementary,95.0,30.263842,-97.698951,Travis County,Elementary,10.47989,4386,4.26,10.05953,4481.0,2.12
174,78702,Kealing Middle School,38.0,30.27111,-97.721557,Travis County,Middle,90.7497,124,94.5,89.084,162.0,92.81
175,78702,Martin Middle,25.0,30.252742,-97.729761,Travis County,Middle,7.84535,2195,2.62,7.49894,2220.0,1.42
176,78702,Oak Springs Elementary,28.0,30.271787,-97.70478,Travis County,Elementary,5.32052,4548,0.72,5.1102,4576.0,0.04
177,78703,Austin High School,-91.0,30.274013,-97.767439,Travis County,High,69.18945,396,78.89,75.25701,305.0,83.61
178,78703,Bryker Woods Elementary,4.0,30.305478,-97.750966,Travis County,Elementary,85.00763,563,87.71,85.21456,567.0,87.61
179,78703,Casis Elementary,135.0,30.304325,-97.765594,Travis County,Elementary,96.12142,127,97.23,93.48444,262.0,94.28
180,78703,Mathews Elementary,171.0,30.278332,-97.760888,Travis County,Elementary,91.89632,287,93.73,88.35348,458.0,90.0
181,78703,O Henry Middle,256.0,30.285755,-97.774089,Travis County,Middle,68.35982,516,77.11,58.63045,772.0,65.72
182,78704,Barton Hills Elementary,139.0,30.254391,-97.783394,Travis County,Elementary,92.78473,250,94.54,90.2781,389.0,91.5
183,78704,Becker Elementary,308.0,30.250532,-97.759832,Travis County,Elementary,84.76963,576,87.43,75.91573,884.0,80.69
184,78704,Dawson Elementary,-493.0,30.234204,-97.763601,Travis County,Elementary,6.383,4526,1.2,17.69326,4033.0,11.9
185,78704,Galindo Elementary,-637.0,30.229454,-97.771748,Travis County,Elementary,27.3804,3519,23.18,34.15749,2882.0,37.05
186,78704,Graduation Preparatory Academy,,30.233019,-97.744162,Travis County,High,9.14307,1724,8.1,,,
187,78704,Lively Middle,-68.0,30.243909,-97.750522,Travis County,Middle,41.20748,1288,42.86,42.9617,1220.0,45.83
188,78705,Helping Hand,-6.0,30.30235,-97.736581,Travis County,Elementary,1.25133,4581,0.0,5.11267,4575.0,0.07
189,78705,Lee Elementary,-135.0,30.293424,-97.727387,Travis County,Elementary,84.89321,567,87.62,89.1845,432.0,90.56
190,78705,University High School,,30.283258,-97.739251,Travis County,High,30.73444,1321,29.58,,,
191,78721,Eastside Memorial Echs,-32.0,30.257813,-97.681311,Travis County,High,11.40661,1683,10.29,12.48385,1651.0,11.28
192,78721,Idea Health Professions Academy,-562.0,30.273872,-97.674185,Travis County,Elementary,15.95847,4161,9.17,23.66928,3599.0,21.38
193,78721,Idea Health Professions College Preparatory,93.0,30.273872,-97.674185,Travis County,Middle,44.13413,1185,47.43,40.44654,1278.0,43.25
194,78721,Norman-Sims Elementary,256.0,30.278048,-97.673335,Travis County,Elementary,17.80948,4059,11.39,13.52361,4315.0,5.74
195,78721,Ortega Elementary,1698.0,30.270031,-97.684399,Travis County,Elementary,54.50784,1893,58.68,23.7843,3591.0,21.56
196,78721,The East Austin College Prep At Mlk,0.0,30.28771,-97.666701,Travis County,High,9.97856,1708,8.96,9.36421,1708.0,8.22
197,78721,The East Austin College Prep At Southwest Key,-229.0,30.287794,-97.666764,Travis County,Elementary,13.52569,4270,6.79,17.56779,4041.0,11.73
198,78722,Campbell Elementary,-1099.0,30.282561,-97.713839,Travis County,Elementary,12.52688,4311,5.89,29.38684,3212.0,29.84
199,78722,Maplewood Elementary,157.0,30.293179,-97.714748,Travis County,Elementary,81.13708,692,84.89,77.04332,849.0,81.45
200,78722,University Of Texas At Austin High School,-232.0,30.287286,-97.723548,Travis County,High,77.81926,243,87.05,94.47603,11.0,99.41
201,78723,Andrews Elementary,-237.0,30.317783,-97.680186,Travis County,Elementary,15.50402,4177,8.82,18.99402,3940.0,13.94
202,78723,Austin Achieve Elementary,-293.0,30.32543,-97.678369,Travis County,Elementary,19.04047,3998,12.73,22.07763,3705.0,19.07
203,78723,Austin Achieve High School,-116.0,30.32543,-97.678369,Travis County,High,32.07105,1297,30.86,37.12753,1181.0,36.54
204,78723,Austin Achieve Middle,-15.0,30.307615,-97.67991,Travis County,Middle,15.19291,2041,9.45,15.23155,2026.0,10.04
205,78723,Blanton Elementary,153.0,30.307377,-97.690348,Travis County,Elementary,63.45494,1445,68.46,58.48608,1598.0,65.09
206,78724,Austin Discovery School,380.0,30.267791,-97.635006,Travis County,Elementary,48.53476,2227,51.39,39.14958,2607.0,43.05
207,78724,Decker Elementary,-218.0,30.311432,-97.616666,Travis County,Elementary,9.28981,4436,3.17,14.87905,4218.0,7.86
208,78724,Decker Middle,-147.0,30.310664,-97.621527,Travis County,Middle,11.88176,2125,5.72,16.8179,1978.0,12.17
209,78724,Garcia Ymla,87.0,30.31125,-97.642635,Travis County,Middle,11.68946,2129,5.55,7.7574,2216.0,1.6
210,78724,Hornsby-Dunlap Elementary,-644.0,30.247887,-97.587487,Travis County,Elementary,8.90293,4459,2.66,20.57407,3815.0,16.67
211,78724,Jordan Elementary,111.0,30.301161,-97.646833,Travis County,Elementary,18.1308,4048,11.64,15.83106,4159.0,9.15
212,78724,Joseph Gilbert Elementary,1186.0,30.258069,-97.593006,Travis County,Elementary,45.8892,2382,48.0,24.11072,3568.0,22.06
213,78724,KIPP Alegria Pri,1055.0,30.272952,-97.636143,Travis County,Elementary,33.72596,3143,31.39,15.16184,4198.0,8.3
214,78724,KIPP Austin Academy Of Arts & Letters,23.0,30.272952,-97.636143,Travis County,Middle,40.5067,1318,41.53,38.2871,1341.0,40.45
215,78724,KIPP Austin Vista Middle Schools,111.0,30.272952,-97.636143,Travis County,Middle,29.9965,1628,27.77,25.02333,1739.0,22.78
216,78725,Dailey Middle,-280.0,30.243437,-97.5898,Travis County,Middle,15.38293,2035,9.72,24.61362,1755.0,22.07
217,78726,Canyon Creek Elementary,-3.0,30.436935,-97.82479,Travis County,Elementary,98.83008,26,99.43,99.41769,23.0,99.5
218,78726,Grandview Hills Elementary,-287.0,30.415844,-97.853578,Travis County,Elementary,57.55328,1722,62.41,62.26468,1435.0,68.65
219,78726,Harmony Science Academy - Cedar Park,-148.0,30.459612,-97.832247,Travis County,Elementary,79.66864,766,83.28,83.6615,618.0,86.5
220,78727,Davis Elementary,659.0,30.4187,-97.741532,Travis County,Elementary,80.90117,711,84.48,64.14332,1370.0,70.07
221,78727,Parmer Lane Elementary,173.0,30.414805,-97.691705,Travis County,Elementary,50.1296,2147,53.13,44.4999,2320.0,49.32
222,78727,Premier High School-Austin Wells Branch,-423.0,30.437618,-97.696912,Travis County,High,38.97085,1144,39.02,57.08088,721.0,61.26
223,78727,Summitt Elementary,578.0,30.418476,-97.719205,Travis County,Elementary,89.54588,372,91.88,74.27143,950.0,79.25
224,78727,Westview Middle,-221.0,30.416792,-97.689348,Travis County,Middle,16.90584,1995,11.49,23.72166,1774.0,21.23
225,78728,Joe Lee Johnson Elementary,-833.0,30.456579,-97.681743,Travis County,Elementary,33.4633,3156,31.11,44.44772,2323.0,49.26
226,78728,Northwest Elementary,-218.0,30.431891,-97.676044,Travis County,Elementary,25.27245,3646,20.41,26.21972,3428.0,25.12
227,78728,Wells Branch Elementary,-272.0,30.444813,-97.686532,Travis County,Elementary,19.61613,3965,13.45,22.27733,3693.0,19.33
228,78730,River Place Elementary,-361.0,30.390036,-97.845224,Travis County,Elementary,69.6572,1162,74.63,78.27355,801.0,82.5
229,78731,Doss Elementary,12.0,30.356013,-97.762907,Travis County,Elementary,94.91393,177,96.14,95.37944,189.0,95.87
230,78731,Highland Park Elementary,203.0,30.330614,-97.759989,Travis County,Elementary,96.66279,105,97.71,92.22457,308.0,93.27
231,78731,Murchison Middle,83.0,30.354132,-97.758712,Travis County,Middle,71.45171,473,79.02,67.79867,556.0,75.31
232,78732,Canyon Ridge Middle,-50.0,30.365046,-97.902949,Travis County,Middle,91.96314,113,94.99,95.33146,63.0,97.2
233,78732,Laura Welch Bush Elementary,1.0,30.36607,-97.900333,Travis County,Elementary,97.36772,81,98.23,98.20682,82.0,98.21
234,78732,River Ridge Elementary,35.0,30.346319,-97.915729,Travis County,Elementary,98.30244,41,99.1,98.41974,76.0,98.34
235,78732,Steiner Ranch Elementary,-207.0,30.379053,-97.884145,Travis County,Elementary,80.87422,714,84.41,86.9391,507.0,88.93
236,78733,Barton Creek Elementary,-99.0,30.306848,-97.881012,Travis County,Elementary,94.74207,183,96.01,98.16598,84.0,98.17
237,78733,West Ridge Middle,14.0,30.302806,-97.883966,Travis County,Middle,96.97148,44,98.05,95.79065,58.0,97.42
238,78734,Hudson Bend Middle,-128.0,30.391035,-97.934852,Travis County,Middle,74.62207,416,81.54,81.43398,288.0,87.21
239,78734,Lake Travis Elementary,-844.0,30.370483,-97.944814,Travis County,Elementary,42.8406,2553,44.27,56.32782,1709.0,62.67
240,78734,Lakeway Elementary,-231.0,30.352909,-97.976031,Travis County,Elementary,87.44389,452,90.13,94.43308,221.0,95.17
241,78735,Oak Hill Elementary,-254.0,30.238018,-97.858644,Travis County,Elementary,63.20676,1459,68.15,68.07216,1205.0,73.68
242,78738,Bee Cave Elementary,-80.0,30.309203,-97.968308,Travis County,Elementary,83.85949,606,86.77,86.36414,526.0,88.51
243,78738,Bee Cave Middle,46.0,30.31388,-97.995188,Travis County,Middle,95.37097,64,97.16,92.67054,110.0,95.12
244,78738,Lake Pointe Elementary,-119.0,30.309468,-97.920704,Travis County,Elementary,92.64355,257,94.39,96.68122,138.0,96.99
245,78738,Lake Travis High School,14.0,30.327959,-97.966869,Travis County,High,77.97787,239,87.26,77.92654,253.0,86.41
246,78738,Serene Hills Elementary,59.0,30.348306,-97.996556,Travis County,Elementary,84.15834,599,86.92,82.5142,658.0,85.63
247,78739,Bailey Middle,490.0,30.16443,-97.872317,Travis County,Middle,58.25851,771,65.79,41.47351,1261.0,44.01
248,78739,Baldwin Elementary,254.0,30.184894,-97.923392,Travis County,Elementary,95.6836,147,96.79,90.01398,401.0,91.24
249,78739,Bear Creek Elementary,,30.170778,-97.909483,Travis County,Elementary,93.82089,217,95.26,,,
250,78739,Clayton Elementary,-4.0,30.195105,-97.906497,Travis County,Elementary,96.98666,93,97.97,98.03775,89.0,98.06
251,78739,Kiker Elementary,-248.0,30.191536,-97.881246,Travis County,Elementary,88.13167,422,90.79,95.94337,174.0,96.2
252,78741,Allison Elementary,425.0,30.236175,-97.691591,Travis County,Elementary,20.18506,3932,14.17,12.74944,4357.0,4.83
253,78741,Baty Elementary,-473.0,30.227016,-97.713072,Travis County,Elementary,5.18516,4549,0.7,16.9697,4076.0,10.97
254,78741,Idea Montopolis Academy,600.0,30.22629,-97.699061,Travis County,Elementary,51.46866,2072,54.77,38.10119,2672.0,41.63
255,78741,Idea Montopolis College Preparatory,151.0,30.22629,-97.699061,Travis County,High,52.95598,800,57.36,47.42797,951.0,48.9
256,78741,Linder Elementary,-6.0,30.224365,-97.737678,Travis County,Elementary,19.91713,3947,13.84,18.98822,3941.0,13.91
257,78741,The Excel Center For Adults Ayw,131.0,30.215556,-97.747353,Travis County,High,17.45733,1581,15.72,9.11753,1712.0,8.01
258,78744,Blazier Elementary,172.0,30.156173,-97.751461,Travis County,Elementary,69.43074,1168,74.5,64.94784,1340.0,70.73
259,78744,Harmony School Of Excellence - Austin,98.0,30.210365,-97.746605,Travis County,High,34.5464,1238,34.01,29.29211,1336.0,28.21
260,78744,Harmony School Of Innovation - Austin,1156.0,30.21007,-97.745391,Travis County,Elementary,31.17613,3304,27.88,10.63051,4460.0,2.58
261,78744,Hillcrest Elementary,263.0,30.165654,-97.729117,Travis County,Elementary,17.68267,4067,11.22,13.27205,4330.0,5.42
262,78744,Houston Elementary,313.0,30.197779,-97.75474,Travis County,Elementary,14.1469,4239,7.47,7.53437,4552.0,0.57
263,78744,Idea Bluff Springs Academy,1626.0,30.15393,-97.769126,Travis County,Elementary,52.79697,1996,56.43,23.26921,3622.0,20.88
264,78744,John P Ojeda Middle,-287.0,30.190596,-97.712593,Travis County,Middle,15.97009,2019,10.43,25.12243,1732.0,23.09
265,78744,KIPP Austin Beacon Prep,30.0,30.202689,-97.75703,Travis County,Middle,27.92995,1707,24.27,25.047,1737.0,22.87
266,78745,Bedichek Middle,509.0,30.194664,-97.786616,Travis County,Middle,30.74036,1608,28.66,11.98077,2117.0,5.99
267,78745,Crockett Echs,-89.0,30.213911,-97.796551,Travis County,High,26.97993,1399,25.43,30.25995,1310.0,29.61
268,78745,Cunningham Elementary,449.0,30.209982,-97.806022,Travis County,Elementary,61.14228,1545,66.27,50.68285,1994.0,56.44
269,78745,Joslin Elementary,,30.227976,-97.790413,Travis County,Elementary,57.08759,1745,61.91,,,
270,78745,Odom Elementary,821.0,30.205669,-97.789623,Travis County,Elementary,31.48939,3288,28.23,16.54271,4109.0,10.24
271,78745,Pleasant Hill Elementary,-331.0,30.196451,-97.776158,Travis County,Elementary,21.38938,3865,15.63,24.69206,3534.0,22.8
272,78746,Bridge Point Elementary,-136.0,30.339656,-97.805905,Travis County,Elementary,90.79687,321,92.99,95.60656,185.0,95.96
273,78746,Cedar Creek Elementary,69.0,30.268906,-97.805906,Travis County,Elementary,96.7297,103,97.75,95.98135,172.0,96.24
274,78746,Eanes Elementary,-58.0,30.283164,-97.811418,Travis County,Elementary,91.88818,288,93.71,94.2356,230.0,94.98
275,78746,Forest Trail Elementary,-99.0,30.281195,-97.819719,Travis County,Elementary,92.99971,242,94.72,96.50362,143.0,96.88
276,78746,Hill Country Middle,18.0,30.271104,-97.803365,Travis County,Middle,97.51892,36,98.4,96.31268,54.0,97.6
277,78747,Wayside Altamira Academy,-385.0,30.136921,-97.776793,Travis County,Elementary,28.05927,3477,24.1,31.23091,3092.0,32.46
278,78748,Akins High School,8.0,30.14988,-97.801206,Travis County,High,30.21103,1339,28.62,28.88766,1347.0,27.62
279,78748,Baranoff Elementary,308.0,30.15406,-97.85202,Travis County,Elementary,85.89863,522,88.61,77.51682,830.0,81.87
280,78748,Casey Elementary,994.0,30.176906,-97.814857,Travis County,Elementary,49.31167,2185,52.3,29.84467,3179.0,30.56
281,78748,Cowan Elementary,872.0,30.18874,-97.833538,Travis County,Elementary,81.50016,678,85.2,59.28831,1550.0,66.14
282,78748,Kocurek Elementary,599.0,30.177985,-97.834894,Travis County,Elementary,39.17204,2794,39.01,26.80405,3393.0,25.88
283,78748,Menchaca Elementary,631.0,30.141147,-97.836202,Travis County,Elementary,35.94732,3010,34.29,22.95691,3641.0,20.47
284,78748,Paredes Middle School,71.0,30.167471,-97.811345,Travis County,Middle,16.28283,2008,10.91,13.15074,2079.0,7.68
285,78749,Boone Elementary,451.0,30.203694,-97.839849,Travis County,Elementary,62.33587,1504,67.17,51.59078,1955.0,57.3
286,78749,Bowie High School,-23.0,30.187626,-97.858648,Travis County,High,82.55095,159,91.52,83.80332,136.0,92.69
287,78749,Covington Middle,425.0,30.212846,-97.834284,Travis County,Middle,44.01231,1191,47.16,29.03461,1616.0,28.24
288,78749,Gorzycki Middle,68.0,30.2145,-97.891875,Travis County,Middle,95.47564,60,97.34,91.72396,128.0,94.32
289,78749,Mills Elementary,215.0,30.210955,-97.878234,Travis County,Elementary,97.08196,87,98.1,92.30297,302.0,93.4
290,78749,Patton Elementary,153.0,30.23173,-97.845238,Travis County,Elementary,77.2841,866,81.1,72.29903,1019.0,77.74
291,78749,Small Middle,599.0,30.233756,-97.841595,Travis County,Middle,74.95012,405,82.03,50.9169,1004.0,55.42
292,78750,Anderson Mill Elementary,145.0,30.452678,-97.806434,Williamson County,Elementary,34.81843,3070,32.98,29.33745,3215.0,29.77
293,78750,Canyon Vista Middle,37.0,30.428253,-97.78463,Travis County,Middle,98.3724,19,99.16,96.14519,56.0,97.51
294,78750,Four Points Middle,-145.0,30.396705,-97.829746,Travis County,Middle,77.54724,367,83.72,85.55355,222.0,90.14
295,78750,Noel Grisham Middle,34.0,30.456814,-97.807044,Williamson County,Middle,80.76951,319,85.85,77.77766,353.0,84.33
296,78750,Purple Sage Elementary,349.0,30.457058,-97.820177,Williamson County,Elementary,84.43658,590,87.12,74.4307,939.0,79.49
297,78750,Spicewood Elementary,-49.0,30.445057,-97.804267,Travis County,Elementary,95.0134,175,96.18,96.87462,126.0,97.25
298,78750,Vandegrift High School,31.0,30.398385,-97.824676,Travis County,High,85.19052,120,93.6,82.81741,151.0,91.89
299,78750,Westwood High School,-34.0,30.45603,-97.798071,Williamson County,High,82.39128,160,91.47,84.43231,126.0,93.23
300,78751,Ridgetop Elementary,246.0,30.311793,-97.716336,Travis County,Elementary,90.06538,351,92.34,84.13758,597.0,86.96
301,78752,Brown Elementary,232.0,30.344778,-97.709081,Travis County,Elementary,14.22616,4237,7.51,10.33867,4469.0,2.38
302,78752,Cedars Academy Next Generation H S At Highland,434.0,30.327967,-97.70919,Travis County,High,50.99617,854,54.48,31.16653,1288.0,30.79
303,78752,Northeast Early College High School,-7.0,30.324213,-97.691048,Travis County,High,13.26129,1645,12.31,13.22356,1638.0,11.98
304,78752,Pickle Elementary,406.0,30.333049,-97.693792,Travis County,Elementary,19.79482,3952,13.73,12.74007,4358.0,4.81
305,78752,Reilly Elementary,1035.0,30.327887,-97.71976,Travis County,Elementary,62.79979,1480,67.69,40.88123,2515.0,45.06
306,78752,Webb Middle School,21.0,30.33331,-97.706987,Travis County,Middle,6.56682,2206,2.13,6.94685,2227.0,1.11
307,78753,Barrington Elementary,-138.0,30.361193,-97.695633,Travis County,Elementary,12.38005,4315,5.81,15.49508,4177.0,8.76
308,78753,Cedars International Academy,-115.0,30.348235,-97.695308,Travis County,Elementary,31.17683,3303,27.9,29.71971,3188.0,30.36
309,78753,Copperfield Elementary,428.0,30.388269,-97.659892,Travis County,Elementary,46.93173,2320,49.36,36.59718,2748.0,39.97
310,78753,Dobie Middle,10.0,30.35418,-97.680109,Travis County,Middle,6.2416,2211,1.91,7.44351,2221.0,1.38
311,78753,Graham Elementary,1223.0,30.372511,-97.669252,Travis County,Elementary,54.34646,1910,58.31,30.62569,3133.0,31.56
312,78753,Guerrero Thompson,1709.0,30.363864,-97.691655,Travis County,Elementary,67.59759,1243,72.87,33.22311,2952.0,35.52
313,78753,Harmony Science Academy - Austin,198.0,30.357408,-97.684729,Travis County,Elementary,13.68213,4256,7.09,10.85396,4454.0,2.71
314,78753,Hart Elementary,848.0,30.342492,-97.688729,Travis County,Elementary,43.74626,2514,45.12,27.32686,3362.0,26.56
315,78753,Idea Rundberg Academy,12.0,30.361042,-97.687821,Travis County,Elementary,36.61835,2966,35.25,32.96948,2978.0,34.95
316,78754,Bluebonnet Trail Elementary,1124.0,30.351549,-97.618503,Travis County,Elementary,63.10437,1467,67.98,39.43948,2591.0,43.4
317,78754,Dessau Elementary,-71.0,30.401839,-97.643645,Travis County,Elementary,10.51268,4384,4.3,13.56559,4313.0,5.79
318,78754,Dessau Middle,-162.0,30.39868,-97.643312,Travis County,Middle,17.81687,1982,12.07,22.03753,1820.0,19.18
319,78754,KIPP Austin College Prep,309.0,30.33561,-97.686071,Travis County,Middle,41.23973,1285,42.99,29.59099,1594.0,29.22
320,78754,KIPP Austin Collegiate,433.0,30.33561,-97.686071,Travis County,High,53.72852,776,58.64,35.84353,1209.0,35.03
321,78754,KIPP Austin Comunidad,-9.0,30.33561,-97.686071,Travis County,Elementary,28.02003,3479,24.06,25.49137,3470.0,24.2
322,78754,Pioneer Crossing Elementary,-25.0,30.362067,-97.639782,Travis County,Elementary,43.0104,2549,44.36,40.78464,2524.0,44.87
323,78754,Wilhelmina Delco Elementary,-106.0,30.399955,-97.645334,Travis County,Elementary,33.36987,3163,30.95,31.70892,3057.0,33.22
324,78756,McCallum High School,22.0,30.326565,-97.729715,Travis County,High,79.12109,209,88.86,79.24529,231.0,87.59
325,78757,Brentwood Elementary,48.0,30.339895,-97.731322,Travis County,Elementary,92.13772,276,93.98,91.78421,324.0,92.92
326,78757,Burnet Middle,45.0,30.364556,-97.725828,Travis County,Middle,8.34536,2189,2.88,6.06004,2234.0,0.8
327,78757,Gullett Elementary,-54.0,30.343798,-97.748694,Travis County,Elementary,95.26155,162,96.46,97.17282,108.0,97.64
328,78757,Lamar Middle School,222.0,30.337669,-97.740384,Travis County,Middle,84.67311,226,89.97,72.96408,448.0,80.11
329,78757,Pillow Elementary,-496.0,30.369199,-97.733212,Travis County,Elementary,27.54348,3509,23.4,32.36306,3013.0,34.19
330,78758,Cook Elementary,550.0,30.377944,-97.704836,Travis County,Elementary,47.35655,2299,49.81,34.80571,2849.0,37.77
331,78758,Graduation Prep Academy Navarro,-9.0,30.360598,-97.708042,Travis County,High,1.75534,1868,0.43,1.30533,1859.0,0.11
332,78758,Harmony School Of Science - Austin,408.0,30.400787,-97.708669,Travis County,Elementary,61.64242,1534,66.51,51.93533,1942.0,57.58
333,78758,McBee Elementary,978.0,30.383225,-97.691057,Travis County,Elementary,32.17463,3236,29.36,14.9109,4214.0,7.95
334,78758,Navarro Early College High School,35.0,30.360598,-97.708042,Travis County,High,16.82875,1585,15.51,14.22151,1620.0,12.95
335,78758,Padron Elementary,319.0,30.37379,-97.720215,Travis County,Elementary,20.25096,3925,14.32,14.53251,4244.0,7.3
336,78758,River Oaks Elementary,616.0,30.408748,-97.687098,Travis County,Elementary,40.4036,2717,40.69,27.65888,3333.0,27.2
337,78758,Settlement Home,174.0,30.365126,-97.713402,Travis County,High,30.11878,1346,28.25,20.30404,1520.0,18.32
338,78759,Anderson High School,-12.0,30.375754,-97.753617,Travis County,High,72.97178,320,82.94,75.05708,308.0,83.45
339,78759,Hill Elementary,41.0,30.376514,-97.748921,Travis County,Elementary,94.38438,200,95.63,94.00583,241.0,94.74
340,78759,Kathy Caraway Elementary,66.0,30.419875,-97.769418,Travis County,Elementary,90.63944,325,92.91,90.25131,391.0,91.46
341,78759,Laurel Mountain Elementary,-10.0,30.413758,-97.780755,Travis County,Elementary,97.8476,65,98.58,98.9222,55.0,98.8
